HAWK-7A                 
1 56191U 23054P   26068.68910991  .00007758  00000+0  30248-3 0  9997
2 56191  97.2827 318.5579 0004249  51.2619 308.8999 15.26207271161849
IRIS-F2                 
1 62684U 25009CD  26068.70792150  .00007938  00000+0  32095-3 0  9993
2 62684  97.3936 149.6497 0004949 359.0166   1.1061 15.24984435121290
